NORAD_CAT_ID,OBJECT_NAME,OBJECT_TYPE,EPOCH,MEAN_MOTION,ECCENTRICITY,INCLINATION,RA_OF_ASC_NODE,ARG_OF_PERICENTER,MEAN_ANOMALY,BSTAR,MEAN_MOTION_DOT,MEAN_MOTION_DDOT,TLE_LINE0,TLE_LINE1,TLE_LINE2,SEMIMAJOR_AXIS,PERIOD,APOGEE,PERIGEE,DECAYED
51138.0,STARLINK-3177,PAYLOAD,2022-07-31 19:19:13,15.08844619,0.0001929,53.2155,90.8378,58.9722,301.1459,0.00010539,1.39e-05,0.0,0 STARLINK-3177,1 51138U 22005AL  22212.80501267  .00001390  00000-0  10539-3 0  9999,2 51138  53.2155  90.8378 0001929  58.9722 301.1459 15.08844619 29921,6917.866,95.437,541.066,538.3969999999998,0.0
51138.0,STARLINK-3177,PAYLOAD,2022-08-01 01:40:45,15.08847685,0.0001916,53.2164,89.6481,59.8655,300.2526,7.3626e-05,8.84e-06,0.0,0 STARLINK-3177,1 51138U 22005AL  22213.06996965  .00000884  00000-0  73626-4 0  9995,2 51138  53.2164  89.6481 0001916  59.8655 300.2526 15.08847685 29968,6917.857,95.437,541.047,538.396,0.0
51138.0,STARLINK-3177,PAYLOAD,2022-08-01 17:34:36,15.08841683,0.0001919,53.2163,86.6746,59.8738,300.2444,0.00014312,1.99e-05,0.0,0 STARLINK-3177,1 51138U 22005AL  22213.73236938  .00001990  00000-0  14312-3 0  9991,2 51138  53.2163  86.6746 0001919  59.8738 300.2444 15.08841683 31181,6917.875,95.437,541.068,538.413,0.0
51138.0,STARLINK-3177,PAYLOAD,2022-08-01 22:20:46,15.08836083,0.0001921999999999,53.2163,85.7823,60.2935,299.8248,8.6904e-05,1.095e-05,0.0,0 STARLINK-3177,1 51138U 22005AL  22213.93109440  .00001095  00000-0  86904-4 0  9993,2 51138  53.2163  85.7823 0001922  60.2935 299.8248 15.08836083 30098,6917.892,95.438,541.087,538.428,0.0
51138.0,STARLINK-3177,PAYLOAD,2022-08-02 01:31:33,15.08834119,0.000192,53.2163,85.1877,59.3701,300.7481,5.2342e-05,5.45e-06,0.0,0 STARLINK-3177,1 51138U 22005AL  22214.06357668  .00000545  00000-0  52342-4 0  9993,2 51138  53.2163  85.1877 0001920  59.3701 300.7481 15.08834119 31235,6917.898,95.438,541.092,538.435,0.0
51138.0,STARLINK-3177,PAYLOAD,2022-08-02 07:53:05,15.08837183,0.0001932,53.2164,83.9982,59.5261,300.5922,6.876899999999999e-05,8.06e-06,0.0,0 STARLINK-3177,1 51138U 22005AL  22214.32853471  .00000806  00000-0  68769-4 0  9995,2 51138  53.2164  83.9982 0001932  59.5261 300.5922 15.08837183 30157,6917.889,95.438,541.091,538.4169999999998,0.0
51138.0,STARLINK-3177,PAYLOAD,2022-08-03 01:22:19,15.08844359,0.0001943,53.2161,80.7272,59.6269,300.4915,6.110399999999999e-05,6.85e-06,0.0,0 STARLINK-3177,1 51138U 22005AL  22215.05716954  .00000685  00000-0  61104-4 0  9991,2 51138  53.2161  80.7272 0001943  59.6269 300.4915 15.08844359 31382,6917.8669999999975,95.437,541.076,538.388,0.0
51138.0,STARLINK-3177,PAYLOAD,2022-08-03 07:43:51,15.08847214,0.0001954,53.2163,79.5376,59.8292,300.2894,7.4637e-05,9e-06,0.0,0 STARLINK-3177,1 51138U 22005AL  22215.32212664  .00000900  00000-0  74637-4 0  9995,2 51138  53.2163  79.5376 0001954  59.8292 300.2894 15.08847214 30303,6917.858,95.437,541.075,538.372,0.0
51138.0,STARLINK-3177,PAYLOAD,2022-08-03 15:40:48,15.0883356,0.0001848,53.2161,78.0511,61.2137,298.904,7.7764e-05,9.5e-06,0.0,0 STARLINK-3177,1 51138U 22005AL  22215.65333463  .00000950  00000-0  77764-4 0  9991,2 51138  53.2161  78.0511 0001848  61.2137 298.9040 15.08833560 30353,6917.9,95.438,541.044,538.487,0.0
51138.0,STARLINK-3177,PAYLOAD,2022-08-04 13:56:12,15.08837627,0.0001898,53.2163,73.8876,60.0944,300.0236,7.2549e-05,8.67e-06,0.0,0 STARLINK-3177,1 51138U 22005AL  22216.58069626  .00000867  00000-0  72549-4 0  9994,2 51138  53.2163  73.8876 0001898  60.0944 300.0236 15.08837627 30495,6917.888000000001,95.438,541.066,538.44,0.0
51138.0,STARLINK-3177,PAYLOAD,2022-08-04 15:31:35,15.08837835,0.0001875,53.2166,73.5904,61.1044,299.0136,5.6052e-05,6.04e-06,0.0,0 STARLINK-3177,1 51138U 22005AL  22216.64693666  .00000604  00000-0  56052-4 0  9998,2 51138  53.2166  73.5904 0001875  61.1044 299.0136 15.08837835 30504,6917.887,95.438,541.049,538.455,0.0
51138.0,STARLINK-3177,PAYLOAD,2022-08-05 01:03:53,15.08842072,0.0001876999999999,53.2158,71.8058,60.3852,299.7327,7.082800000000001e-05,8.39e-06,0.0,0 STARLINK-3177,1 51138U 22005AL  22217.04437168  .00000839  00000-0  70828-4 0  9993,2 51138  53.2158  71.8058 0001877  60.3852 299.7327 15.08842072 31684,6917.874,95.437,541.038,538.441,0.0
51138.0,STARLINK-3177,PAYLOAD,2022-08-05 13:46:58,15.0884657,0.000194,53.2158,69.4266,60.7574,299.3612,0.00013054,1.7899999999999998e-05,0.0,0 STARLINK-3177,1 51138U 22005AL  22217.57428958  .00001790  00000-0  13054-3 0  9992,2 51138  53.2158  69.4266 0001940  60.7574 299.3612 15.08846570 30649,6917.86,95.437,541.067,538.383,0.0
51138.0,STARLINK-3177,PAYLOAD,2022-08-05 15:22:21,15.08846027,0.0001896999999999,53.2156,69.1293,61.0966,299.0216,0.00020091,2.911e-05,0.0,0 STARLINK-3177,1 51138U 22005AL  22217.64052998  .00002911  00000-0  20091-3 0  9992,2 51138  53.2156  69.1293 0001897  61.0966 299.0216 15.08846027 30659,6917.861999999999,95.437,541.039,538.415,0.0
51138.0,STARLINK-3177,PAYLOAD,2022-08-06 02:30:03,15.08838785,0.0001771999999999,53.2155,67.0477,52.9774,307.138,2.2308e-05,6.7e-07,0.0,0 STARLINK-3177,1 51138U 22005AL  22218.10421088  .00000067  00000-0  22308-4 0  9998,2 51138  53.2155  67.0477 0001772  52.9774 307.1380 15.08838785 31844,6917.884,95.438,540.975,538.523,0.0
51138.0,STARLINK-3177,PAYLOAD,2022-08-06 13:37:45,15.08842667,0.0001965,53.2157,64.96600000000001,62.9601,297.1591,0.00013454,1.854e-05,0.0,0 STARLINK-3177,1 51138U 22005AL  22218.56789298  .00001854  00000-0  13454-3 0  9994,2 51138  53.2157  64.9660 0001965  62.9601 297.1591 15.08842667 30799,6917.871999999999,95.437,541.097,538.378,0.0
51138.0,STARLINK-3177,PAYLOAD,2022-08-06 19:59:18,15.08842479,0.0001744,53.2158,63.7768,61.3627,298.754,0.00011555,1.552e-05,0.0,0 STARLINK-3177,1 51138U 22005AL  22218.83285172  .00001552  00000-0  11555-3 0  9991,2 51138  53.2158  63.7768 0001744  61.3627 298.7540 15.08842479 30839,6917.873000000001,95.437,540.944,538.531,0.0
51138.0,STARLINK-3177,PAYLOAD,2022-08-07 07:07:00,15.08849888,0.0001851,53.2155,61.6953,61.3435,298.7743,0.00025533,3.779e-05,0.0,0 STARLINK-3177,1 51138U 22005AL  22219.29652903  .00003779  00000-0  25533-3 0  9996,2 51138  53.2155  61.6953 0001851  61.3435 298.7743 15.08849888 32024,6917.85,95.437,540.996,538.435,0.0
51138.0,STARLINK-3177,PAYLOAD,2022-08-07 19:50:05,15.08839311,0.0001881,53.2173,59.3181,62.3148,297.8035,0.00011197,1.494e-05,0.0,0 STARLINK-3177,1 51138U 22005AL  22219.82645524  .00001494  00000-0  11197-3 0  9999,2 51138  53.2173  59.3181 0001881  62.3148 297.8035 15.08839311 32109,6917.882,95.438,541.049,538.446,0.0
51138.0,STARLINK-3177,PAYLOAD,2022-08-08 06:57:47,15.08847766,0.0001831999999999,53.2155,57.2349,61.6607,298.4569,0.00044809,6.852e-05,0.0,0 STARLINK-3177,1 51138U 22005AL  22220.29013453  .00006852  00000-0  44809-3 0  9991,2 51138  53.2155  57.2349 0001832  61.6607 298.4569 15.08847766 31055,6917.857,95.437,540.989,538.4540000000002,0.0
51138.0,STARLINK-3177,PAYLOAD,2022-08-08 19:40:52,15.08857574,0.0001804,53.2158,54.8559,60.7771,299.3401,0.00078068,0.00012164,0.0,0 STARLINK-3177,1 51138U 22005AL  22220.82005172  .00012164  00000-0  78068-3 0  9996,2 51138  53.2158  54.8559 0001804  60.7771 299.3401 15.08857574 31137,6917.8269999999975,95.436,540.94,538.444,0.0
51138.0,STARLINK-3177,PAYLOAD,2022-08-09 00:27:01,15.08862228,0.0001805,53.2159,53.9636,60.6216,299.4956,0.00083601,0.0001305,0.0,0 STARLINK-3177,1 51138U 22005AL  22221.01876945  .00013050  00000-0  83601-3 0  9996,2 51138  53.2159  53.9636 0001805  60.6216 299.4956 15.08862228 32283,6917.812,95.436,540.9259999999998,538.429,0.0
51138.0,STARLINK-3177,PAYLOAD,2022-08-09 14:45:29,15.08850318,0.0001561,53.2161,51.2875,65.1928,294.9227,0.00020306,2.946e-05,0.0,0 STARLINK-3177,1 51138U 22005AL  22221.61492824  .00002946  00000-0  20306-3 0  9997,2 51138  53.2161  51.2875 0001561  65.1928 294.9227 15.08850318 31255,6917.849,95.437,540.794,538.634,0.0
51138.0,STARLINK-3177,PAYLOAD,2022-08-09 21:07:00,15.08850749,0.0002497,53.2162,50.098,224.437,135.6422,-0.00010436,-1.949e-05,0.0,0 STARLINK-3177,1 51138U 22005AL  22221.87987200 -.00001949  00000-0 -10436-3 0  9999,2 51138  53.2162  50.0980 0002497 224.4370 135.6422 15.08850749 32415,6917.848000000001,95.437,541.44,537.985,0.0
51138.0,STARLINK-3177,PAYLOAD,2022-08-10 13:00:54,15.08827,0.0001720999999999,53.2159,47.1235,71.7325,288.3854,-7.779e-05,-1.525e-05,0.0,0 STARLINK-3177,1 51138U 22005AL  22222.54229856 -.00001525  00000-0 -77790-4 0  9997,2 51138  53.2159  47.1235 0001721  71.7325 288.3854 15.08827000 31398,6917.92,95.438,540.976,538.595,0.0
51138.0,STARLINK-3177,PAYLOAD,2022-08-11 04:54:46,15.08825865,0.0001546,53.2162,44.1505,58.2104,301.9038,3.9087e-05,3.34e-06,0.0,0 STARLINK-3177,1 51138U 22005AL  22223.20470651  .00000334  00000-0  39087-4 0  9994,2 51138  53.2162  44.1505 0001546  58.2104 301.9038 15.08825865 31493,6917.924,95.438,540.8580000000002,538.719,0.0
51138.0,STARLINK-3177,PAYLOAD,2022-08-11 17:37:52,15.08829212,0.0001553,53.2164,41.7718,57.6127,302.5015,0.00023564,3.463e-05,0.0,0 STARLINK-3177,1 51138U 22005AL  22223.73463018  .00003463  00000-0  23564-3 0  9999,2 51138  53.2164  41.7718 0001553  57.6127 302.5015 15.08829212 32695,6917.913000000001,95.438,540.8530000000002,538.7040000000002,0.0
51138.0,STARLINK-3177,PAYLOAD,2022-08-12 11:07:06,15.08845744,0.0001506,53.2158,38.4999,56.5245,303.5891,0.00045005,6.883e-05,0.0,0 STARLINK-3177,1 51138U 22005AL  22224.46326797  .00006883  00000-0  45005-3 0  9995,2 51138  53.2158  38.4999 0001506  56.5245 303.5891 15.08845744 31688,6917.863,95.437,540.77,538.686,0.0
51138.0,STARLINK-3177,PAYLOAD,2022-08-12 19:04:01,15.08854704,0.0001519,53.2157,37.01300000000001,56.2861,303.8276,0.00052092,8.015e-05,0.0,0 STARLINK-3177,1 51138U 22005AL  22224.79446444  .00008015  00000-0  52092-3 0  9996,2 51138  53.2157  37.0130 0001519  56.2861 303.8276 15.08854704 31736,6917.835,95.437,540.751,538.65,0.0
